NORAD_CAT_ID,OBJECT_NAME,OBJECT_TYPE,EPOCH,MEAN_MOTION,ECCENTRICITY,INCLINATION,RA_OF_ASC_NODE,ARG_OF_PERICENTER,MEAN_ANOMALY,BSTAR,MEAN_MOTION_DOT,MEAN_MOTION_DDOT,TLE_LINE0,TLE_LINE1,TLE_LINE2,SEMIMAJOR_AXIS,PERIOD,APOGEE,PERIGEE,DECAYED
55937.0,STARLINK-5913,PAYLOAD,2023-10-21 12:05:36,14.98331771,0.0002601,69.9995,318.55,262.9328,97.1536,-2.0437e-05,-3.37e-06,0.0,0 STARLINK-5913,1 55937U 23037Z   23294.50389407 -.00000337  00000-0 -20437-4 0  9995,2 55937  69.9995 318.5500 0002601 262.9328  97.1536 14.98331771 33631,6950.187,96.107,573.86,570.245,0.0
55937.0,STARLINK-5913,PAYLOAD,2023-10-21 18:30:08,14.98333385,0.0002665,69.9995,317.8757,269.0855,90.9998,-3.7429e-05,-5.4e-06,0.0,0 STARLINK-5913,1 55937U 23037Z   23294.77093297 -.00000540  00000-0 -37429-4 0  9998,2 55937  69.9995 317.8757 0002665 269.0855  90.9998 14.98333385 33670,6950.182,96.107,573.9,570.195,0.0
55937.0,STARLINK-5913,PAYLOAD,2023-10-22 04:06:56,14.98373953,0.0002118,69.9992,316.8655,265.7613,94.3304,-0.00069433,-8.377e-05,0.0,0 STARLINK-5913,1 55937U 23037Z   23295.17148946 -.00008377  00000-0 -69433-3 0  9990,2 55937  69.9992 316.8655 0002118 265.7613  94.3304 14.98373953 34070,6950.057,96.104,573.394,570.45,0.0
55937.0,STARLINK-5913,PAYLOAD,2023-10-22 12:07:36,14.98368189,0.0002014,69.9996,316.0237,264.2139,95.879,-0.00060053,-7.258e-05,0.0,0 STARLINK-5913,1 55937U 23037Z   23295.50528356 -.00007258  00000-0 -60053-3 0  9990,2 55937  69.9996 316.0237 0002014 264.2139  95.8790 14.98368189 33781,6950.075,96.105,573.34,570.54,0.0
55937.0,STARLINK-5913,PAYLOAD,2023-10-22 18:32:09,14.98327005,0.0002366,70.0002,315.3491,274.3958,85.6931,1.3683e-06,-7.7e-07,0.0,0 STARLINK-5913,1 55937U 23037Z   23295.77233650 -.00000077  00000-0  13683-5 0  9999,2 55937  70.0002 315.3491 0002366 274.3958  85.6931 14.98327005 34166,6950.202,96.107,573.712,570.423,0.0
55937.0,STARLINK-5913,PAYLOAD,2023-10-23 18:34:10,14.98349853,0.0002913,69.9993,312.8242,275.1357,84.9469,-0.00039484,-4.803e-05,0.0,0 STARLINK-5913,1 55937U 23037Z   23296.77373043 -.00004803  00000-0 -39484-3 0  9998,2 55937  69.9993 312.8242 0002913 275.1357  84.9469 14.98349853 34318,6950.131,96.106,574.021,569.972,0.0
55937.0,STARLINK-5913,PAYLOAD,2023-10-24 04:10:58,14.98331293,0.0002938,69.9986,311.8143,272.6547,87.4276,8.0193e-06,3e-08,0.0,0 STARLINK-5913,1 55937U 23037Z   23297.17429284  .00000003  00000-0  80193-5 0  9993,2 55937  69.9986 311.8143 0002938 272.6547  87.4276 14.98331293 34378,6950.189,96.107,574.096,570.012,0.0
55937.0,STARLINK-5913,PAYLOAD,2023-10-24 10:35:31,14.98330531,0.0002574,69.9995,311.1413,268.0816,92.0049,1.9994e-05,1.46e-06,0.0,0 STARLINK-5913,1 55937U 23037Z   23297.44133284  .00000146  00000-0  19994-4 0  9993,2 55937  69.9995 311.1413 0002574 268.0816  92.0049 14.98330531 34076,6950.191,96.107,573.845,570.267,0.0
55937.0,STARLINK-5913,PAYLOAD,2023-10-25 10:37:32,14.98319449,0.0002706,69.9988,308.616,266.7703,93.3146,0.00011621,1.293e-05,0.0,0 STARLINK-5913,1 55937U 23037Z   23298.44273805  .00001293  00000-0  11621-3 0  9990,2 55937  69.9988 308.6160 0002706 266.7703  93.3146 14.98319449 34566,6950.226,96.108,573.971,570.21,0.0
55937.0,STARLINK-5913,PAYLOAD,2023-10-26 04:15:00,14.98333959,0.0002752,69.9998,306.7653,272.6429,87.4415,8.0288e-06,3e-08,0.0,0 STARLINK-5913,1 55937U 23037Z   23299.17709151  .00000003  00000-0  80288-5 0  9994,2 55937  69.9998 306.7653 0002752 272.6429  87.4415 14.98333959 34672,6950.181,96.107,573.958,570.133,0.0
55937.0,STARLINK-5913,PAYLOAD,2023-10-26 10:39:33,14.98332725,0.0002677,69.9998,306.0911,276.1441,83.9413,-1.031e-05,-2.16e-06,0.0,0 STARLINK-5913,1 55937U 23037Z   23299.44413264 -.00000216  00000-0 -10310-4 0  9997,2 55937  69.9998 306.0911 0002677 276.1441  83.9413 14.98332725 34377,6950.184,96.107,573.91,570.189,0.0
55937.0,STARLINK-5913,PAYLOAD,2023-10-27 04:17:01,14.98333033,0.0002811,69.9989,304.2397,272.7495,87.3342,6.6692e-05,7.03e-06,0.0,0 STARLINK-5913,1 55937U 23037Z   23300.17848791  .00000703  00000-0  66692-4 0  9990,2 55937  69.9989 304.2397 0002811 272.7495  87.3342 14.98333033 34828,6950.184,96.107,574.002,570.095,0.0
55937.0,STARLINK-5913,PAYLOAD,2023-10-27 10:41:33,14.98334329,0.0002694,69.9991,303.5665,266.1215,93.9636,8.8041e-05,9.58e-06,0.0,0 STARLINK-5913,1 55937U 23037Z   23300.44552518  .00000958  00000-0  88041-4 0  9993,2 55937  69.9991 303.5665 0002694 266.1215  93.9636 14.98334329 34522,6950.18,96.107,573.917,570.172,0.0
55937.0,STARLINK-5913,PAYLOAD,2023-10-27 17:06:06,14.98327023,0.0002276,70.001,302.8921,289.4232,70.6681,3.5986e-05,3.36e-06,0.0,0 STARLINK-5913,1 55937U 23037Z   23300.71257352  .00000336  00000-0  35986-4 0  9991,2 55937  70.0010 302.8921 0002276 289.4232  70.6681 14.98327023 34904,6950.202,96.107,573.649,570.485,0.0
55937.0,STARLINK-5913,PAYLOAD,2023-10-28 09:07:27,14.9832364,0.0002252,70.0001,301.2106,253.7339,106.3572,-8.5685e-05,-1.115e-05,0.0,0 STARLINK-5913,1 55937U 23037Z   23301.38017663 -.00001115  00000-0 -85685-4 0  9993,2 55937  70.0001 301.2106 0002252 253.7339 106.3572 14.98323640 34668,6950.213,96.107,573.643,570.512,0.0
55937.0,STARLINK-5913,PAYLOAD,2023-10-28 17:08:07,14.98322522,0.0002546,69.9995,300.3686,262.2199,97.8671,4.9554e-05,4.98e-06,0.0,0 STARLINK-5913,1 55937U 23037Z   23301.71397441  .00000498  00000-0  49554-4 0  9991,2 55937  69.9995 300.3686 0002546 262.2199  97.8671 14.98322522 35051,6950.216,96.107,573.851,570.311,0.0
55937.0,STARLINK-5913,PAYLOAD,2023-10-29 04:21:03,14.98334085,0.000268,69.9987,299.1897,264.6319,95.4534,-3.1225e-05,-4.66e-06,0.0,0 STARLINK-5913,1 55937U 23037Z   23302.18128738 -.00000466  00000-0 -31225-4 0  9997,2 55937  69.9987 299.1897 0002680 264.6319  95.4534 14.98334085 35127,6950.18,96.107,573.908,570.183,0.0
55937.0,STARLINK-5913,PAYLOAD,2023-10-29 09:09:27,14.98323335,0.0002958,69.9986,298.6847,268.4245,91.6575,0.00022789,2.627e-05,0.0,0 STARLINK-5913,1 55937U 23037Z   23302.38156681  .00002627  00000-0  22789-3 0  9990,2 55937  69.9986 298.6847 0002958 268.4245  91.6575 14.98323335 34817,6950.214,96.107,574.134,570.023,0.0
55937.0,STARLINK-5913,PAYLOAD,2023-10-29 17:10:07,14.9833197,0.0002621,69.9994,297.8431,271.1515,88.9343,-0.00011025,-1.408e-05,0.0,0 STARLINK-5913,1 55937U 23037Z   23302.71537001 -.00001408  00000-0 -11025-3 0  9995,2 55937  69.9994 297.8431 0002621 271.1515  88.9343 14.98331970 34865,6950.187,96.107,573.873,570.23,0.0
55937.0,STARLINK-5913,PAYLOAD,2023-10-30 04:23:04,14.9832408,0.0002873,69.9987,296.6646,272.3683,87.7148,1.3679e-05,7e-07,0.0,0 STARLINK-5913,1 55937U 23037Z   23303.18269189  .00000070  00000-0  13679-4 0  9996,2 55937  69.9987 296.6646 0002873 272.3683  87.7148 14.98324080 35270,6950.211,96.107,574.073,570.079,0.0
55937.0,STARLINK-5913,PAYLOAD,2023-10-30 17:12:09,14.98315397,0.0002909,69.9985,295.3184,260.3857,99.6973,0.00014346,1.618e-05,0.0,0 STARLINK-5913,1 55937U 23037Z   23303.71677503  .00001618  00000-0  14346-3 0  9998,2 55937  69.9985 295.3184 0002909 260.3857  99.6973 14.98315397 35012,6950.238,96.108,574.125,570.081,0.0
55937.0,STARLINK-5913,PAYLOAD,2023-10-31 04:25:05,14.98327213,0.0002934,69.9986,294.1399,270.4914,89.5909,-4.7787e-05,-6.63e-06,0.0,0 STARLINK-5913,1 55937U 23037Z   23304.18409338 -.00000663  00000-0 -47787-4 0  9996,2 55937  69.9986 294.1399 0002934 270.4914  89.5909 14.98327213 35424,6950.202,96.107,574.106,570.027,0.0
55937.0,STARLINK-5913,PAYLOAD,2023-10-31 09:13:29,14.98331194,0.0002757,69.9985,293.6336,262.9069,97.1776,4.0913e-06,-4.4e-07,0.0,0 STARLINK-5913,1 55937U 23037Z   23304.38436926 -.00000044  00000-0  40913-5 0  9998,2 55937  69.9985 293.6336 0002757 262.9069  97.1776 14.98331194 35114,6950.189,96.107,573.97,570.138,0.0
55937.0,STARLINK-5913,PAYLOAD,2023-10-31 17:14:09,14.98330466,0.0002927,69.9994,292.7924,271.581,88.5014,-4.5155e-05,-6.32e-06,0.0,0 STARLINK-5913,1 55937U 23037Z   23304.71817125 -.00000632  00000-0 -45155-4 0  9995,2 55937  69.9994 292.7924 0002927 271.5810  88.5014 14.98330466 35161,6950.191,96.107,574.091,570.022,0.0
55937.0,STARLINK-5913,PAYLOAD,2023-11-01 04:27:06,14.98326419,0.0002878,69.9993,291.6144,272.0282,88.0548,3.604e-05,3.37e-06,0.0,0 STARLINK-5913,1 55937U 23037Z   23305.18549233  .00000337  00000-0  36040-4 0  9992,2 55937  69.9993 291.6144 0002878 272.0282  88.0548 14.98326419 35571,6950.204,96.107,574.069,570.069,0.0
55937.0,STARLINK-5913,PAYLOAD,2023-11-01 09:15:30,14.98348943,0.0002375,69.9998,291.109,267.4784,92.6103,-0.0003306,-4.037e-05,0.0,0 STARLINK-5913,1 55937U 23037Z   23305.38576708 -.00004037  00000-0 -33060-3 0  9992,2 55937  69.9998 291.1090 0002375 267.4784  92.6103 14.98348943 35606,6950.134,96.106,573.65,570.349,0.0
55937.0,STARLINK-5913,PAYLOAD,2023-11-02 04:29:10,14.98289156,0.0002709,70.0002,289.0901,242.3918,117.6966,-0.00044004,-5.334e-05,0.0,0 STARLINK-5913,1 55937U 23037Z   23306.18692525 -.00005334  00000-0 -44004-3 0  9998,2 55937  70.0002 289.0901 0002709 242.3918 117.6966 14.98289156 35722,6950.319,96.11,574.067,570.301,0.0
55937.0,STARLINK-5913,PAYLOAD,2023-11-02 09:17:31,14.9831173,0.0002672,69.9999,288.585,267.1607,92.9246,0.00034725,4.051e-05,0.0,0 STARLINK-5913,1 55937U 23037Z   23306.38717406  .00004051  00000-0  34725-3 0  9998,2 55937  69.9999 288.5850 0002672 267.1607  92.9246 14.98311730 35753,6950.249,96.108,573.971,570.257,0.0
55937.0,STARLINK-5913,PAYLOAD,2023-11-02 15:42:02,14.98387784,0.0002963,70.0006,287.9106,275.5751,84.507,-0.00095987,-0.00011544,0.0,0 STARLINK-5913,1 55937U 23037Z   23306.65419441 -.00011544  00000-0 -95987-3 0  9990,2 55937  70.0006 287.9106 0002963 275.5751  84.5070 14.98387784 35796,6950.014,96.103,573.938,569.82,0.0
55937.0,STARLINK-5913,PAYLOAD,2023-11-02 22:06:35,14.98333027,0.0002729,70.0001,287.2381,269.9863,90.0984,-1.9516e-05,-3.26e-06,0.0,0 STARLINK-5913,1 55937U 23037Z   23306.92124965 -.00000326  00000-0 -19516-4 0  9995,2 55937  70.0001 287.2381 0002729 269.9863  90.0984 14.98333027 35494,6950.184,96.107,573.945,570.152,0.0
